1 44740U 19074AD  22365.51391592  .00007108  00000-0  49543-3 0  9997
2 44740  53.0558  32.8134 0002370  33.6489 326.4650 15.06411686173008
1 44740U 19074AD  22365.77930323  .00005891  00000-0  41398-3 0  9993
2 44740  53.0543  31.6220 0002422  36.6295 323.4859 15.06409586173049
1 44740U 19074AD  23001.11104103  .00000450  00000-0  49149-4 0  9997
2 44740  53.0552  30.1322 0002317  34.0108 326.1029 15.06399670173269
1 44740U 19074AD  23001.44277142 -.00000571  00000-0 -19388-4 0  9995
2 44740  53.0547  28.6432 0002368  31.8961 328.2171 15.06403283173149
1 44740U 19074AD  23002.43797465  .00001327  00000-0  10801-3 0  9998
2 44740  53.0548  24.1754 0002409  35.1485 324.9663 15.06404103173299
1 44740U 19074AD  23002.43797465  .00001327  00000-0  10801-3 0  9998
2 44740  53.0548  24.1754 0002409  35.1485 324.9663 15.06404103173468
1 44740U 19074AD  23002.76971546  .00000952  00000-0  82819-4 0  9990
2 44740  53.0547  22.6862 0002429  36.1469 323.9684 15.06391437173349
1 44740U 19074AD  23002.76971546  .00000952  00000-0  82819-4 0  9990
2 44740  53.0547  22.6862 0002429  36.1469 323.9684 15.06391437173518
1 44740U 19074AD  23003.56587915  .00003399  00000-0  24700-3 0  9994
2 44740  53.0540  19.1130 0002360  32.8090 327.3045 15.06397615173464
1 44740U 19074AD  23004.09665312  .00004553  00000-0  32437-3 0  9990
2 44740  53.0546  16.7292 0002436  34.1680 325.9465 15.06403252173719
1 44740U 19074AD  23004.49473405  .00005391  00000-0  38051-3 0  9993
2 44740  53.0557  14.9419 0002262  33.5893 326.5239 15.06404873173602
1 44740U 19074AD  23004.82646604  .00009749  00000-0  67220-3 0  9994
2 44740  53.0546  13.4529 0002427  37.4663 322.6495 15.06414339173651
1 44740U 19074AD  23005.15819626  .00009322  00000-0  64361-3 0  9997
2 44740  53.0554  11.9616 0002036  40.8258 319.2883 15.06417185173873
1 44740U 19074AD  23005.42358591  .00003813  00000-0  27468-3 0  9992
2 44740  53.0546  10.7723 0002491  35.7640 324.3515 15.06407255173914
1 44740U 19074AD  23005.48993379  .00001784  00000-0  13865-3 0  9998
2 44740  53.0557  10.4756 0002559  39.4695 320.6480 15.06404028173752
1 44740U 19074AD  23006.28609605  .00006976  00000-0  48671-3 0  9994
2 44740  53.0549   6.9001 0002517  39.7611 320.3562 15.06404659173872
1 44740U 19074AD  23006.28609605  .00006976  00000-0  48671-3 0  9994
2 44740  53.0549   6.9001 0002517  39.7611 320.3562 15.06404659174042
1 44740U 19074AD  23007.01590971  .00006353  00000-0  44494-3 0  9999
2 44740  53.0546   3.6244 0002423  38.3081 321.8080 15.06407192174152
1 44740U 19074AD  23007.28129496  .00006289  00000-0  44060-3 0  9995
2 44740  53.0546   2.4329 0002395  37.4887 322.6268 15.06410306174029
1 44740U 19074AD  23007.67937334 -.00007286  00000-0 -47089-3 0  9990
2 44740  53.0548   0.6455 0002894  41.0329 319.0877 15.06380373174089
1 44740U 19074AD  23007.67937334 -.00007286  00000-0 -47089-3 0  9990
2 44740  53.0548   0.6455 0002894  41.0329 319.0877 15.06380373174258
1 44740U 19074AD  23008.01112072 -.00002250  00000-0 -13220-3 0  9999
2 44740  53.0547 359.1562 0002535  37.6969 322.4197 15.06386962174131
1 44740U 19074AD  23008.93997604  .00005585  00000-0  39348-3 0  9993
2 44740  53.0564 354.9876 0002599  41.6567 318.4620 15.06404416174276
1 44740U 19074AD  23008.93997604  .00005585  00000-0  39348-3 0  9993
2 44740  53.0564 354.9876 0002599  41.6567 318.4620 15.06404416174445
1 44740U 19074AD  23009.20536326  .00007216  00000-0  50271-3 0  9995
2 44740  53.0569 353.7963 0002615  44.1100 316.0097 15.06407400174318
1 44740U 19074AD  23009.66979432  .00001600  00000-0  12629-3 0  9990
2 44740  53.0554 351.7109 0002546  42.0735 318.0449 15.06396562174551
1 44740U 19074AD  23009.93517873  .00004745  00000-0  33724-3 0  9999
2 44740  53.0548 350.5202 0002355  33.9899 326.1241 15.06403568174424
1 44740U 19074AD  23010.33326096  .00002268  00000-0  17115-3 0  9994
2 44740  53.0550 348.7318 0002293  36.7038 323.4107 15.06401083174488
1 44740U 19074AD  23010.93038231  .00002159  00000-0  16377-3 0  9999
2 44740  53.0544 346.0509 0002271  36.1537 323.9605 15.06403053174575
1 44740U 19074AD  23011.06307447  .00003417  00000-0  24816-3 0  9997
2 44740  53.0558 345.4582 0002521  32.0369 328.0773 15.06406998174764
1 44740U 19074AD  23011.19576403  .00004295  00000-0  30695-3 0  9998
2 44740  53.0556 344.8602 0002148  39.1635 320.9509 15.06413048174613
1 44740U 19074AD  23011.92558258  .00000082  00000-0  24457-4 0  9997
2 44740  53.0548 341.5836 0002230  35.1994 324.9142 15.06397936174729
1 44740U 19074AD  23012.05827592  .00000160  00000-0  29643-4 0  9991
2 44740  53.0559 340.9883 0002223  35.1843 324.9293 15.06398268174918
1 44740U 19074AD  23012.92078811 -.00000770  00000-0 -32744-4 0  9994
2 44740  53.0560 337.1180 0002329  35.5349 324.5795 15.06397113174876
1 44740U 19074AD  23013.11982489 -.00000305  00000-0 -15361-5 0  9992
2 44740  53.0563 336.2242 0002156  41.5890 318.5262 15.06399954175074
1 44740U 19074AD  23013.58425092 -.00000480  00000-0 -13332-4 0  9994
2 44740  53.0573 334.1379 0002247  37.3387 322.7758 15.06401465174974
1 44740U 19074AD  23013.91599252  .00000001  00000-0  18972-4 0  9993
2 44740  53.0564 332.6501 0002146  37.9815 322.1325 15.06389180175024
1 44740U 19074AD  23014.18137795  .00000462  00000-0  49918-4 0  9998
2 44740  53.0570 331.4610 0002225  37.8963 322.2182 15.06393448175237
1 44740U 19074AD  23014.31406625  .00001206  00000-0  99842-4 0  9992
2 44740  53.0559 330.8624 0002123  38.8027 321.3114 15.06399364175251
1 44740U 19074AD  23015.57465416  .00001504  00000-0  11983-3 0  9994
2 44740  53.0574 325.2058 0002308  49.5416 310.5774 15.06403185175274
1 44740U 19074AD  23015.57465416  .00001504  00000-0  11983-3 0  9994
2 44740  53.0574 325.2058 0002308  49.5416 310.5774 15.06403185175443
1 44740U 19074AD  23016.10544838 -.00003151  00000-0 -19285-3 0  9995
2 44740  53.0575 322.8210 0001917  52.6908 307.4255 15.06373589175525
1 44740U 19074AD  23016.56988621 -.00004265  00000-0 -26780-3 0  9992
2 44740  53.0576 320.7365 0001897  53.2068 306.9095 15.06369164175424
1 44740U 19074AD  23016.83528600 -.00004533  00000-0 -28595-3 0  9993
2 44740  53.0557 319.5473 0001893  55.1826 304.9341 15.06358211175465
1 44740U 19074AD  23016.83528600 -.00004533  00000-0 -28595-3 0  9993
2 44740  53.0557 319.5473 0001893  55.1826 304.9341 15.06358211175634
1 44740U 19074AD  23017.10067481 -.00003366  00000-0 -20738-3 0  9993
2 44740  53.0527 318.3546 0002246  63.4070 296.7149 15.06364063175675
1 44740U 19074AD  23017.56510070 -.00003166  00000-0 -19387-3 0  9996
2 44740  53.0553 316.2675 0001661  68.7685 291.3481 15.06377911175579
1 44740U 19074AD  23017.56510070 -.00003166  00000-0 -19387-3 0  9996
2 44740  53.0553 316.2675 0001661  68.7685 291.3481 15.06377911175748
1 44740U 19074AD  23018.22857561 -.00000793  00000-0 -34328-4 0  9995
2 44740  53.0552 313.2869 0001832  97.1644 262.9553 15.06375937175672
1 44740U 19074AD  23019.02473261  .00013491  00000-0  92262-3 0  9992
2 44740  53.0538 309.7170 0001763  79.1689 280.9499 15.06408656175790
1 44740U 19074AD  23019.02473261  .00013491  00000-0  92262-3 0  9992
2 44740  53.0538 309.7170 0001763  79.1689 280.9499 15.06408656175969
1 44740U 19074AD  23019.82089714  .00003779  00000-0  27247-3 0  9995
2 44740  53.0557 306.1371 0002030 120.7456 239.3733 15.06401537176081
1 44740U 19074AD  23020.48435977  .00001410  00000-0  11350-3 0  9993
2 44740  53.0550 303.1627 0001516  99.4094 260.7067 15.06407130176019
1 44740U 19074AD  23021.14781592 -.00000837  00000-0 -37248-4 0  9993
2 44740  53.0529 300.1854 0001807 104.3242 255.7948 15.06418186176282
1 44740U 19074AD  23021.67860160  .00001593  00000-0  12585-3 0  9994
2 44740  53.0532 297.8033 0001623 102.4777 257.6394 15.06399172176363
1 44740U 19074AD  23022.74015282 -.00002309  00000-0 -13619-3 0  9997
2 44740  53.0523 293.0367 0001537  98.7460 261.3703 15.06386114176527
1 44740U 19074AD  23023.53631822  .00015938  00000-0  10865-2 0  9998
2 44740  53.0520 289.4627 0001429  89.9737 270.1416 15.06398234176649
1 44740U 19074AD  23025.12863522  .00005648  00000-0  39763-3 0  9995
2 44740  53.0526 282.3130 0001406  88.4409 271.6741 15.06411731176882
1 44740U 19074AD  23025.39402401  .00000935  00000-0  81664-4 0  9991
2 44740  53.0530 281.1200 0001300  84.7100 275.4037 15.06401435176758
1 44740U 19074AD  23025.39402401  .00000935  00000-0  81664-4 0  9991
2 44740  53.0530 281.1200 0001300  84.7100 275.4037 15.06401435176927
1 44740U 19074AD  23026.05749220  .00001324  00000-0  10775-3 0  9995
2 44740  53.0516 278.1440 0001411  98.4524 261.6625 15.06403396176858
1 44740U 19074AD  23026.85365611  .00000573  00000-0  57355-4 0  9992
2 44740  53.0517 274.5697 0001299 102.8210 257.2924 15.06398812177141
1 44740U 19074AD  23026.98634931  .00001191  00000-0  98820-4 0  9999
2 44740  53.0518 273.9742 0001284 103.4051 256.7081 15.06400478176992
1 44740U 19074AD  23027.84885694 -.00002074  00000-0 -12040-3 0  9991
2 44740  53.0525 270.1025 0001387 102.0656 258.0488 15.06402530177126
1 44740U 19074AD  23028.04789979  .00001487  00000-0  11869-3 0  9996
2 44740  53.0515 269.2075 0001174  96.7758 263.3364 15.06400839177150
1 44740U 19074AD  23028.04789979  .00001487  00000-0  11869-3 0  9996
2 44740  53.0515 269.2075 0001174  96.7758 263.3364 15.06400839177329
1 44740U 19074AD  23028.64502561  .00000251  00000-0  35744-4 0  9999
2 44740  53.0513 266.5269 0001191  91.2955 268.8170 15.06394822177419
1 44740U 19074AD  23028.91041365  .00000215  00000-0  33359-4 0  9999
2 44740  53.0515 265.3356 0001201  88.7551 271.3575 15.06394875177281
1 44740U 19074AD  23029.70657306  .00001333  00000-0  10835-3 0  9990
2 44740  53.0523 261.7613 0001271  87.6775 272.4359 15.06399993177579
1 44740U 19074AD  23029.90561086  .00001643  00000-0  12916-3 0  9997
2 44740  53.0524 260.8672 0001263  91.6186 268.4947 15.06402428177438
1 44740U 19074AD  23030.03830339  .00001794  00000-0  13931-3 0  9998
2 44740  53.0524 260.2714 0001251  91.3952 268.7180 15.06403684177453
1 44740U 19074AD  23030.90081783  .00000513  00000-0  53347-4 0  9999
2 44740  53.0523 256.3989 0001251  92.2296 267.8837 15.06397037177580
1 44740U 19074AD  23030.96716457  .00000464  00000-0  50028-4 0  9996
2 44740  53.0522 256.1011 0001253  91.8526 268.2606 15.06397076177599
1 44740U 19074AD  23030.96716457  .00000464  00000-0  50028-4 0  9996
2 44740  53.0522 256.1011 0001253  91.8526 268.2606 15.06397076177768
1 44740U 19074AD  23031.89601943  .00000085  00000-0  24578-4 0  9992
2 44740  53.0521 251.9316 0001234  90.0136 270.0994 15.06399473177736
